OBJECT_NAME,OBJECT_ID,EPOCH,MEAN_MOTION,ECCENTRICITY,INCLINATION,RA_OF_ASC_NODE,ARG_OF_PERICENTER,MEAN_ANOMALY,EPHEMERIS_TYPE,CLASSIFICATION_TYPE,NORAD_CAT_ID,ELEMENT_SET_NO,REV_AT_EPOCH,BSTAR,MEAN_MOTION_DOT,MEAN_MOTION_DDOT
ONEWEB-0054,2020-008AD,2026-06-11T15:52:19.090848,13.10369172,.0001866,87.8844,37.3674,83.2659,276.8681,0,U,45158,999,30730,-.63319E-4,-.9E-7,0
ONEWEB-0056,2020-008AE,2026-06-11T15:11:32.129664,13.10375925,.0001952,87.8844,37.3670,89.6069,270.5282,0,U,45159,999,30745,.13852E-2,.496E-5,0
ONEWEB-0057,2020-008AF,2026-06-11T15:35:48.069888,13.10369879,.0002207,87.8839,37.3758,72.9336,287.2033,0,U,45160,999,30762,.14318E-2,.512E-5,0
ONEWEB-0058,2020-008AG,2026-06-11T17:06:38.369376,13.10371910,.0001527,87.8835,37.3698,80.7391,279.3909,0,U,45161,999,30770,.28354E-2,.1003E-4,0
ONEWEB-0059,2020-008AH,2026-06-11T17:01:51.503232,13.10375122,.0001715,87.8833,37.3694,75.8394,284.2924,0,U,45162,999,30760,.14558E-2,.521E-5,0
ONEWEB-0062,2020-008AJ,2026-06-11T17:34:54.880896,13.10369271,.0001411,87.8842,37.3516,89.8356,270.2933,0,U,45163,999,30747,.60538E-3,.224E-5,0
ONEWEB-0065,2020-008AK,2026-06-11T16:32:44.851200,13.10374972,.0002158,87.8846,37.3683,81.1668,278.9704,0,U,45164,999,30716,-.11935E-2,-.404E-5,0
ONEWEB-0066,2020-020A,2026-06-11T15:40:46.517952,13.11418848,.000173,87.8893,22.1730,79.4481,280.6842,0,U,45424,999,30195,-.87802E-3,-.298E-5,0
ONEWEB-0067,2020-020B,2026-06-11T14:45:31.183200,13.11421982,.0001971,87.8909,22.1012,82.1815,277.9537,0,U,45425,999,30200,.45634E-3,.174E-5,0
ONEWEB-0080,2020-020C,2026-06-11T16:34:42.434688,13.11415112,.000153,87.8900,22.1611,90.8260,269.3044,0,U,45426,999,30198,.51151E-3,.194E-5,0
ONEWEB-0090,2020-020D,2026-06-11T15:26:19.316832,13.11417215,.0001768,87.8902,22.1752,86.4043,273.7287,0,U,45427,999,30194,-.14465E-2,-.5E-5,0
ONEWEB-0061,2020-020E,2026-06-11T16:12:20.092320,13.11418187,.0001742,87.8900,22.1538,84.8073,275.3253,0,U,45428,999,30190,.17525E-2,.634E-5,0
ONEWEB-0081,2020-020F,2026-06-11T15:45:39.755232,13.11420577,.0001861,87.8896,22.1679,78.3719,281.7618,0,U,45429,999,30201,.77902E-4,.4E-6,0
ONEWEB-0069,2020-020G,2026-06-11T15:48:17.883648,13.11418758,.0001823,87.8899,22.1703,81.9883,278.1452,0,U,45430,999,30194,-.47464E-3,-.156E-5,0
ONEWEB-0031,2020-020H,2026-06-11T14:49:31.217952,13.11415589,.0001667,87.8886,22.1839,88.9070,271.2249,0,U,45431,999,30192,.117E-3,.54E-6,0
ONEWEB-0027,2020-020J,2026-06-11T15:21:26.103744,13.16239529,.0001913,87.9195,6.9675,98.6169,261.5178,0,U,45432,999,30562,.5788E-1,.22078E-3,0
ONEWEB-0064,2020-020K,2026-06-11T16:36:56.796192,13.11414040,.0001754,87.8891,22.1605,90.2112,269.9217,0,U,45433,999,30196,.31486E-3,.124E-5,0
ONEWEB-0018,2020-020L,2026-06-11T15:33:19.982880,13.11459394,.0001707,87.8893,22.1690,76.4762,283.6556,0,U,45434,999,30190,-.78635E-3,-.266E-5,0
ONEWEB-0083,2020-020M,2026-06-11T15:19:00.773760,13.11417205,.0001731,87.8898,22.1641,84.9781,275.1544,0,U,45435,999,30194,-.14572E-2,-.504E-5,0
ONEWEB-0095,2020-020N,2026-06-11T15:06:50.010336,13.11420104,.0002384,87.8898,22.1742,96.2206,263.9193,0,U,45436,999,30194,-.13189E-2,-.455E-5,0
ONEWEB-0092,2020-020P,2026-06-11T14:00:55.681056,13.11952187,.0002181,87.8898,22.1753,85.4128,274.7250,0,U,45437,999,30205,-.11916E-2,-.413E-5,0
ONEWEB-0085,2020-020Q,2026-06-11T15:18:36.480672,13.11417622,.0001808,87.8892,22.1714,85.0305,275.1029,0,U,45438,999,30194,-.18668E-2,-.649E-5,0
ONEWEB-0096,2020-020R,2026-06-11T15:21:16.561728,13.11422910,.0001851,87.8902,22.1667,87.3241,272.8099,0,U,45439,999,30193,-.1461E-2,-.505E-5,0
ONEWEB-0037,2020-020S,2026-06-11T16:12:13.021344,13.11912628,.000189,87.8910,22.1333,85.2746,274.8598,0,U,45440,999,30197,.13917E-2,.51E-5,0
ONEWEB-0042,2020-020T,2026-06-11T15:06:24.154272,13.11414578,.0001852,87.8899,22.1648,81.8200,278.3138,0,U,45441,999,30193,-.11471E-2,-.394E-5,0
ONEWEB-0098,2020-020U,2026-06-11T15:00:30.219264,13.11415541,.000173,87.8895,22.1751,85.8847,274.2478,0,U,45442,999,30191,-.72443E-3,-.244E-5,0
ONEWEB-0055,2020-020V,2026-06-11T16:19:41.280096,13.11415937,.0001747,87.8897,22.1629,86.4431,273.6897,0,U,45443,999,30189,.17794E-2,.643E-5,0
ONEWEB-0093,2020-020W,2026-06-11T15:50:45.117888,13.11423491,.0002721,87.8844,22.1649,63.2659,296.8747,0,U,45444,999,30195,-.33261E-2,-.1166E-4,0
ONEWEB-0029,2020-020X,2026-06-11T16:29:49.413408,13.11418242,.0001777,87.8887,22.1640,76.0634,284.0692,0,U,45445,999,30193,.93227E-3,.343E-5,0
ONEWEB-0068,2020-020Y,2026-06-11T15:50:21.821856,13.11419703,.0001781,87.8902,22.1637,77.7444,282.3883,0,U,45446,999,30187,.52067E-3,.197E-5,0
ONEWEB-0046,2020-020Z,2026-06-11T15:38:19.956768,13.11418801,.0002033,87.8893,22.1718,79.2892,280.8464,0,U,45447,999,30188,-.11371E-2,-.39E-5,0
