ONEWEB-0054             
1 45158U 20008AD  26162.66133207 -.00000009  00000+0 -63319-4 0  9994
2 45158  87.8844  37.3674 0001866  83.2659 276.8681 13.10369172307302
ONEWEB-0056             
1 45159U 20008AE  26162.63301076  .00000496  00000+0  13852-2 0  9996
2 45159  87.8844  37.3670 0001952  89.6069 270.5282 13.10375925307457
ONEWEB-0057             
1 45160U 20008AF  26162.64986192  .00000512  00000+0  14318-2 0  9994
2 45160  87.8839  37.3758 0002207  72.9336 287.2033 13.10369879307625
ONEWEB-0058             
1 45161U 20008AG  26162.71294409  .00001003  00000+0  28354-2 0  9997
2 45161  87.8835  37.3698 0001527  80.7391 279.3909 13.10371910307709
ONEWEB-0059             
1 45162U 20008AH  26162.70962388  .00000521  00000+0  14558-2 0  9990
2 45162  87.8833  37.3694 0001715  75.8394 284.2924 13.10375122307601
ONEWEB-0062             
1 45163U 20008AJ  26162.73257964  .00000224  00000+0  60538-3 0  9991
2 45163  87.8842  37.3516 0001411  89.8356 270.2933 13.10369271307479
ONEWEB-0065             
1 45164U 20008AK  26162.68940800 -.00000404  00000+0 -11935-2 0  9992
2 45164  87.8846  37.3683 0002158  81.1668 278.9704 13.10374972307160
ONEWEB-0066             
1 45424U 20020A   26162.65331618 -.00000298  00000+0 -87802-3 0  9991
2 45424  87.8893  22.1730 0001730  79.4481 280.6842 13.11418848301950
ONEWEB-0067             
1 45425U 20020B   26162.61494425  .00000174  00000+0  45634-3 0  9992
2 45425  87.8909  22.1012 0001971  82.1815 277.9537 13.11421982302001
ONEWEB-0080             
1 45426U 20020C   26162.69076892  .00000194  00000+0  51151-3 0  9998
2 45426  87.8900  22.1611 0001530  90.8260 269.3044 13.11415112301981
ONEWEB-0090             
1 45427U 20020D   26162.64327913 -.00000500  00000+0 -14465-2 0  9996
2 45427  87.8902  22.1752 0001768  86.4043 273.7287 13.11417215301943
ONEWEB-0061             
1 45428U 20020E   26162.67523255  .00000634  00000+0  17525-2 0  9993
2 45428  87.8900  22.1538 0001742  84.8073 275.3253 13.11418187301907
ONEWEB-0081             
1 45429U 20020F   26162.65671013  .00000040  00000+0  77902-4 0  9996
2 45429  87.8896  22.1679 0001861  78.3719 281.7618 13.11420577302010
ONEWEB-0069             
1 45430U 20020G   26162.65854032 -.00000156  00000+0 -47464-3 0  9991
2 45430  87.8899  22.1703 0001823  81.9883 278.1452 13.11418758301948
ONEWEB-0031             
1 45431U 20020H   26162.61772243  .00000054  00000+0  11700-3 0  9990
2 45431  87.8886  22.1839 0001667  88.9070 271.2249 13.11415589301921
ONEWEB-0027             
1 45432U 20020J   26162.63988546  .00022078  00000+0  57880-1 0  9995
2 45432  87.9195   6.9675 0001913  98.6169 261.5178 13.16239529305622
ONEWEB-0064             
1 45433U 20020K   26162.69232403  .00000124  00000+0  31486-3 0  9990
2 45433  87.8891  22.1605 0001754  90.2112 269.9217 13.11414040301964
ONEWEB-0018             
1 45434U 20020L   26162.64814795 -.00000266  00000+0 -78635-3 0  9992
2 45434  87.8893  22.1690 0001707  76.4762 283.6556 13.11459394301900
ONEWEB-0083             
1 45435U 20020M   26162.63820340 -.00000504  00000+0 -14572-2 0  9999
2 45435  87.8898  22.1641 0001731  84.9781 275.1544 13.11417205301946
ONEWEB-0095             
1 45436U 20020N   26162.62974549 -.00000455  00000+0 -13189-2 0  9998
2 45436  87.8898  22.1742 0002384  96.2206 263.9193 13.11420104301949
ONEWEB-0092             
1 45437U 20020P   26162.58397779 -.00000413  00000+0 -11916-2 0  9998
2 45437  87.8898  22.1753 0002181  85.4128 274.7250 13.11952187302058
ONEWEB-0085             
1 45438U 20020Q   26162.63792223 -.00000649  00000+0 -18668-2 0  9990
2 45438  87.8892  22.1714 0001808  85.0305 275.1029 13.11417622301944
ONEWEB-0096             
1 45439U 20020R   26162.63977502 -.00000505  00000+0 -14610-2 0  9990
2 45439  87.8902  22.1667 0001851  87.3241 272.8099 13.11422910301932
ONEWEB-0037             
1 45440U 20020S   26162.67515071  .00000510  00000+0  13917-2 0  9998
2 45440  87.8910  22.1333 0001890  85.2746 274.8598 13.11912628301973
ONEWEB-0042             
1 45441U 20020T   26162.62944623 -.00000394  00000+0 -11471-2 0  9998
2 45441  87.8899  22.1648 0001852  81.8200 278.3138 13.11414578301930
ONEWEB-0098             
1 45442U 20020U   26162.62534976 -.00000244  00000+0 -72443-3 0  9996
2 45442  87.8895  22.1751 0001730  85.8847 274.2478 13.11415541301919
ONEWEB-0055             
1 45443U 20020V   26162.68033889  .00000643  00000+0  17794-2 0  9998
2 45443  87.8897  22.1629 0001747  86.4431 273.6897 13.11415937301894
ONEWEB-0093             
1 45444U 20020W   26162.66024442 -.00001166  00000+0 -33261-2 0  9992
2 45444  87.8844  22.1649 0002721  63.2659 296.8747 13.11423491301959
ONEWEB-0029             
1 45445U 20020X   26162.68737747  .00000343  00000+0  93227-3 0  9997
2 45445  87.8887  22.1640 0001777  76.0634 284.0692 13.11418242301937
ONEWEB-0068             
1 45446U 20020Y   26162.65997479  .00000197  00000+0  52067-3 0  9999
2 45446  87.8902  22.1637 0001781  77.7444 282.3883 13.11419703301873
ONEWEB-0046             
1 45447U 20020Z   26162.65161987 -.00000390  00000+0 -11371-2 0  9996
2 45447  87.8893  22.1718 0002033  79.2892 280.8464 13.11418801301885
